{"type": "FeatureCollection", "features": [ {"type": "Feature", "properties": {"norad_id": 34327, "name": "COSMOS 2251 DEB", "group": "cosmos-2251-debris", "lat": 37.89727233742316, "lon": -11.419061860228062, "alt_km": 615.573534838959, "timestamp": "2025-12-07T22:37:43.476032+00:00", "meta": {"OBJECT_NAME": "COSMOS 2251 DEB", "OBJECT_ID": "1993-036NZ", "EPOCH": "2025-12-07T00:05:54.443040", "MEAN_MOTION": 14.88992267, "ECCENTRICITY": 0.00324991, "INCLINATION": 73.9932, "RA_OF_ASC_NODE": 183.3725, "ARG_OF_PERICENTER": 0.8629, "MEAN_ANOMALY": 149.0444, "EPHEMERIS_TYPE": 0, "CLASSIFICATION_TYPE": "U", "NORAD_CAT_ID": 34327, "ELEMENT_SET_NO": 999, "REV_AT_EPOCH": 89422, "BSTAR": 0.0019145955, "MEAN_MOTION_DOT": 0.000182, "MEAN_MOTION_DDOT": 0}, "tle": {"line1": "1 34327U 93036NZ  25341.00410235  .00018200  00000+0  19146-2 0  9993", "line2": "2 34327  73.9932 183.3725 0032499   0.8629 149.0444 14.88992267894222"}}, "geometry": {"type": "Point", "coordinates": [-11.419061860228062, 37.89727233742316]}}, {"type": "Feature", "properties": {"norad_id": 34340, "name": "COSMOS 2251 DEB", "group": "cosmos-2251-debris", "lat": 21.588181775026143, "lon": -37.51634675627004, "alt_km": 809.2719326476108, "timestamp": "2025-12-07T22:37:43.476042+00:00", "meta": {"OBJECT_NAME": "COSMOS 2251 DEB", "OBJECT_ID": "1993-036PN", "EPOCH": "2025-12-07T05:12:28.831104", "MEAN_MOTION": 13.79542218, "ECCENTRICITY": 0.02820515, "INCLINATION": 74.0788, "RA_OF_ASC_NODE": 317.2105, "ARG_OF_PERICENTER": 66.3627, "MEAN_ANOMALY": 314.8601, "EPHEMERIS_TYPE": 0, "CLASSIFICATION_TYPE": "U", "NORAD_CAT_ID": 34340, "ELEMENT_SET_NO": 999, "REV_AT_EPOCH": 84192, "BSTAR": 0.0017131159, "MEAN_MOTION_DOT": 2.358e-05, "MEAN_MOTION_DDOT": 0}, "tle": {"line1": "1 34340U 93036PN  25341.21700036  .00002358  00000+0  17131-2 0  9991", "line2": "2 34340  74.0788 317.2105 0282051  66.3627 314.8601 13.79542218841926"}}, "geometry": {"type": "Point", "coordinates": [-37.51634675627004, 21.588181775026143]}}, {"type": "Feature", "properties": {"norad_id": 34343, "name": "COSMOS 2251 DEB", "group": "cosmos-2251-debris", "lat": -11.628497578573468, "lon": 95.47445334478367, "alt_km": 652.9959893571913, "timestamp": "2025-12-07T22:37:43.476052+00:00", "meta": {"OBJECT_NAME": "COSMOS 2251 DEB", "OBJECT_ID": "1993-036PR", "EPOCH": "2025-12-07T08:07:40.497024", "MEAN_MOTION": 14.69293369, "ECCENTRICITY": 0.00228869, "INCLINATION": 74.0205, "RA_OF_ASC_NODE": 100.0258, "ARG_OF_PERICENTER": 16.844, "MEAN_ANOMALY": 16.6991, "EPHEMERIS_TYPE": 0, "CLASSIFICATION_TYPE": "U", "NORAD_CAT_ID": 34343, "ELEMENT_SET_NO": 999, "REV_AT_EPOCH": 88651, "BSTAR": 0.0025073936, "MEAN_MOTION_DOT": 0.00014859, "MEAN_MOTION_DDOT": 0}, "tle": {"line1": "1 34343U 93036PR  25341.33866316  .00014859  00000+0  25074-2 0  9995", "line2": "2 34343  74.0205 100.0258 0022886  16.8440  16.6991 14.69293369886514"}}, "geometry": {"type": "Point", "coordinates": [95.47445334478367, -11.628497578573468]}}, {"type": "Feature", "properties": {"norad_id": 34344, "name": "COSMOS 2251 DEB", "group": "cosmos-2251-debris", "lat": -69.60200775815593, "lon": 68.31144619749173, "alt_km": 739.8791434061541, "timestamp": "2025-12-07T22:37:43.476063+00:00", "meta": {"OBJECT_NAME": "COSMOS 2251 DEB", "OBJECT_ID": "1993-036PS", "EPOCH": "2025-12-05T11:56:44.170944", "MEAN_MOTION": 14.16331086, "ECCENTRICITY": 0.01553422, "INCLINATION": 73.9776, "RA_OF_ASC_NODE": 123.2752, "ARG_OF_PERICENTER": 308.8907, "MEAN_ANOMALY": 112.1202, "EPHEMERIS_TYPE": 0, "CLASSIFICATION_TYPE": "U", "NORAD_CAT_ID": 34344, "ELEMENT_SET_NO": 999, "REV_AT_EPOCH": 85994, "BSTAR": 0.0025753986, "MEAN_MOTION_DOT": 5.727e-05, "MEAN_MOTION_DDOT": 0}, "tle": {"line1": "1 34344U 93036PS  25339.49773346  .00005727  00000+0  25754-2 0  9999", "line2": "2 34344  73.9776 123.2752 0155342 308.8907 112.1202 14.16331086859943"}}, "geometry": {"type": "Point", "coordinates": [68.31144619749173, -69.60200775815593]}}, {"type": "Feature", "properties": {"norad_id": 34346, "name": "COSMOS 2251 DEB", "group": "cosmos-2251-debris", "lat": -34.69094497871046, "lon": -50.88899687990922, "alt_km": 1050.743499989041, "timestamp": "2025-12-07T22:37:43.476074+00:00", "meta": {"OBJECT_NAME": "COSMOS 2251 DEB", "OBJECT_ID": "1993-036PU", "EPOCH": "2025-12-07T00:49:29.611200", "MEAN_MOTION": 13.99667503, "ECCENTRICITY": 0.02064856, "INCLINATION": 73.9953, "RA_OF_ASC_NODE": 322.1459, "ARG_OF_PERICENTER": 142.4329, "MEAN_ANOMALY": 285.5331, "EPHEMERIS_TYPE": 0, "CLASSIFICATION_TYPE": "U", "NORAD_CAT_ID": 34346, "ELEMENT_SET_NO": 999, "REV_AT_EPOCH": 85330, "BSTAR": 0.0012980505, "MEAN_MOTION_DOT": 2.259e-05, "MEAN_MOTION_DDOT": 0}, "tle": {"line1": "1 34346U 93036PU  25341.03437050  .00002259  00000+0  12981-2 0  9998", "line2": "2 34346  73.9953 322.1459 0206485 142.4329 285.5331 13.99667503853309"}}, "geometry": {"type": "Point", "coordinates": [-50.88899687990922, -34.69094497871046]}}, {"type": "Feature", "properties": {"norad_id": 34383, "name": "COSMOS 2251 DEB", "group": "cosmos-2251-debris", "lat": 71.96081687546821, "lon": 9.205567128548319, "alt_km": 532.7566755957878, "timestamp": "2025-12-07T22:37:43.476084+00:00", "meta": {"OBJECT_NAME": "COSMOS 2251 DEB", "OBJECT_ID": "1993-036PY", "EPOCH": "2025-12-07T04:49:12.671904", "MEAN_MOTION": 15.08219025, "ECCENTRICITY": 0.0002691, "INCLINATION": 74.0223, "RA_OF_ASC_NODE": 309.1183, "ARG_OF_PERICENTER": 35.1392, "MEAN_ANOMALY": 339.0788, "EPHEMERIS_TYPE": 0, "CLASSIFICATION_TYPE": "U", "NORAD_CAT_ID": 34383, "ELEMENT_SET_NO": 999, "REV_AT_EPOCH": 89030, "BSTAR": 0.0050973479, "MEAN_MOTION_DOT": 0.00079775, "MEAN_MOTION_DDOT": 0}, "tle": {"line1": "1 34383U 93036PY  25341.20084111  .00079775  00000+0  50973-2 0  9994", "line2": "2 34383  74.0223 309.1183 0002691  35.1392 339.0788 15.08219025890308"}}, "geometry": {"type": "Point", "coordinates": [9.205567128548319, 71.96081687546821]}}, {"type": "Feature", "properties": {"norad_id": 34387, "name": "COSMOS 2251 DEB", "group": "cosmos-2251-debris", "lat": 53.63721829284058, "lon": -116.31616807100032, "alt_km": 744.4173743045558, "timestamp": "2025-12-07T22:37:43.476156+00:00", "meta": {"OBJECT_NAME": "COSMOS 2251 DEB", "OBJECT_ID": "1993-036QC", "EPOCH": "2025-12-07T03:06:58.176864", "MEAN_MOTION": 14.4380198, "ECCENTRICITY": 0.00386017, "INCLINATION": 74.0398, "RA_OF_ASC_NODE": 222.3212, "ARG_OF_PERICENTER": 320.3557, "MEAN_ANOMALY": 192.0146, "EPHEMERIS_TYPE": 0, "CLASSIFICATION_TYPE": "U", "NORAD_CAT_ID": 34387, "ELEMENT_SET_NO": 999, "REV_AT_EPOCH": 88100, "BSTAR": 0.00051898444, "MEAN_MOTION_DOT": 1.756e-05, "MEAN_MOTION_DDOT": 0}, "tle": {"line1": "1 34387U 93036QC  25341.12984001  .00001756  00000+0  51898-3 0  9998", "line2": "2 34387  74.0398 222.3212 0038601 320.3557 192.0146 14.43801980881003"}}, "geometry": {"type": "Point", "coordinates": [-116.31616807100032, 53.63721829284058]}}, {"type": "Feature", "properties": {"norad_id": 34388, "name": "COSMOS 2251 DEB", "group": "cosmos-2251-debris", "lat": -53.212607551892276, "lon": -150.40155259588596, "alt_km": 725.1875536214056, "timestamp": "2025-12-07T22:37:43.476169+00:00", "meta": {"OBJECT_NAME": "COSMOS 2251 DEB", "OBJECT_ID": "1993-036QD", "EPOCH": "2025-12-07T03:42:15.535008", "MEAN_MOTION": 14.4932198, "ECCENTRICITY": 0.00142263, "INCLINATION": 74.0394, "RA_OF_ASC_NODE": 233.5796, "ARG_OF_PERICENTER": 282.056, "MEAN_ANOMALY": 229.0664, "EPHEMERIS_TYPE": 0, "CLASSIFICATION_TYPE": "U", "NORAD_CAT_ID": 34388, "ELEMENT_SET_NO": 999, "REV_AT_EPOCH": 88074, "BSTAR": 0.0011888421, "MEAN_MOTION_DOT": 4.52e-05, "MEAN_MOTION_DDOT": 0}, "tle": {"line1": "1 34388U 93036QD  25341.15434647  .00004520  00000+0  11888-2 0  9994", "line2": "2 34388  74.0394 233.5796 0014226 282.0560 229.0664 14.49321980880745"}}, "geometry": {"type": "Point", "coordinates": [-150.40155259588596, -53.212607551892276]}}, {"type": "Feature", "properties": {"norad_id": 34389, "name": "COSMOS 2251 DEB", "group": "cosmos-2251-debris", "lat": 70.483630219645, "lon": 24.76029830477329, "alt_km": 746.1374092653732, "timestamp": "2025-12-07T22:37:43.476180+00:00", "meta": {"OBJECT_NAME": "COSMOS 2251 DEB", "OBJECT_ID": "1993-036QE", "EPOCH": "2025-12-07T06:13:55.193376", "MEAN_MOTION": 14.41511369, "ECCENTRICITY": 0.00286493, "INCLINATION": 74.0196, "RA_OF_ASC_NODE": 259.9752, "ARG_OF_PERICENTER": 13.1094, "MEAN_ANOMALY": 143.8933, "EPHEMERIS_TYPE": 0, "CLASSIFICATION_TYPE": "U", "NORAD_CAT_ID": 34389, "ELEMENT_SET_NO": 999, "REV_AT_EPOCH": 87933, "BSTAR": 0.00078593567, "MEAN_MOTION_DOT": 2.539e-05, "MEAN_MOTION_DDOT": 0}, "tle": {"line1": "1 34389U 93036QE  25341.25966659  .00002539  00000+0  78594-3 0  9995", "line2": "2 34389  74.0196 259.9752 0028649  13.1094 143.8933 14.41511369879338"}}, "geometry": {"type": "Point", "coordinates": [24.76029830477329, 70.483630219645]}}, {"type": "Feature", "properties": {"norad_id": 34396, "name": "COSMOS 2251 DEB", "group": "cosmos-2251-debris", "lat": 0.27113273413235733, "lon": -46.676305903315324, "alt_km": 645.4964266378929, "timestamp": "2025-12-07T22:37:43.476191+00:00", "meta": {"OBJECT_NAME": "COSMOS 2251 DEB", "OBJECT_ID": "1993-036QM", "EPOCH": "2025-12-06T16:33:14.096736", "MEAN_MOTION": 14.74155148, "ECCENTRICITY": 0.00067682, "INCLINATION": 74.0285, "RA_OF_ASC_NODE": 135.8471, "ARG_OF_PERICENTER": 182.0025, "MEAN_ANOMALY": 189.9781, "EPHEMERIS_TYPE": 0, "CLASSIFICATION_TYPE": "U", "NORAD_CAT_ID": 34396, "ELEMENT_SET_NO": 999, "REV_AT_EPOCH": 88257, "BSTAR": 0.0038427461, "MEAN_MOTION_DOT": 0.00025426, "MEAN_MOTION_DDOT": 0}, "tle": {"line1": "1 34396U 93036QM  25340.68974649  .00025426  00000+0  38427-2 0  9997", "line2": "2 34396  74.0285 135.8471 0006768 182.0025 189.9781 14.74155148882570"}}, "geometry": {"type": "Point", "coordinates": [-46.676305903315324, 0.27113273413235733]}}]}